STARLINK-37291          
1 68560U 26070U   26099.83335647 -.01015768  34545-3 -18231-2 0  9996
2 68560  53.1587 228.7773 0000732  56.5161 269.3417 16.01005437  2380
