{
  "norad_id": 68560,
  "name": "STARLINK-37291",
  "history": [
    {
      "epoch": "2026-04-09T20:00:01.999008Z",
      "apogee_km": 272.11995410974305,
      "perigee_km": 271.1464277537898,
      "latitude_deg": -26.90354847524893,
      "longitude_deg": 68.48301394317079,
      "height_km": 279.6135107986014,
      "semi_major_axis_km": 6649.770190931766,
      "eccentricity": 7.32e-05,
      "inclination_deg": 53.1587,
      "raan_deg": 228.7773,
      "arg_perigee_deg": 56.5161,
      "mean_anomaly_deg": 269.3417,
      "mean_motion_rev_day": 16.01005437
    }
  ]
}